{
    "links": {
        "self": "http://www.neowsapp.com/rest/v1/neo/3840692?api_key=iIulBulltgU6a56xZRHN4H3l9WmuAYTsLGpBGhQ2"
    },
    "id": "3840692",
    "neo_reference_id": "3840692",
    "name": "(2019 EJ3)",
    "designation": "2019 EJ3",
    "nasa_jpl_url": "http://ssd.jpl.nasa.gov/sbdb.cgi?sstr=3840692",
    "absolute_magnitude_h": 22.576,
    "estimated_diameter": {
        "kilometers": {
            "estimated_diameter_min": 0.0811624179,
            "estimated_diameter_max": 0.1814846837
        },
        "meters": {
            "estimated_diameter_min": 81.1624179069,
            "estimated_diameter_max": 181.4846836581
        },
        "miles": {
            "estimated_diameter_min": 0.0504319728,
            "estimated_diameter_max": 0.1127693194
        },
        "feet": {
            "estimated_diameter_min": 266.2809071658,
            "estimated_diameter_max": 595.422209533
        }
    },
    "is_potentially_hazardous_asteroid": false,
    "close_approach_data": [
        {
            "close_approach_date": "2019-03-04",
            "close_approach_date_full": "2019-Mar-04 21:36",
            "epoch_date_close_approach": 1551735360000,
            "relative_velocity": {
                "kilometers_per_second": "65.4691197687",
                "kilometers_per_hour": "235688.8311673452",
                "miles_per_hour": "146447.8740106207"
            },
            "miss_distance": {
                "astronomical": "0.1111674494",
                "lunar": "43.2441378166",
                "kilometers": "16630413.643572778",
                "miles": "10333659.8599412164"
            },
            "orbiting_body": "Earth"
        }
    ],
    "orbital_data": {
        "orbit_id": "4",
        "orbit_determination_date": "2019-12-18 11:34:26",
        "first_observation_date": "2019-03-04",
        "last_observation_date": "2019-03-12",
        "data_arc_in_days": 8,
        "observations_used": 71,
        "orbit_uncertainty": "9",
        "minimum_orbit_intersection": ".098411",
        "jupiter_tisserand_invariant": "-0.754",
        "epoch_osculation": "2458552.5",
        "eccentricity": ".9556016958779832",
        "semi_major_axis": "24.23073753056511",
        "inclination": "139.6131506988934",
        "ascending_node_longitude": "340.662274142481",
        "orbital_period": "43566.06918650494",
        "perihelion_distance": "1.075803653982797",
        "perihelion_argument": "193.5567834529203",
        "aphelion_distance": "47.38567140714743",
        "perihelion_time": "2458560.544699678719",
        "mean_anomaly": "359.9335241407265",
        "mean_motion": ".008263311488095278",
        "equinox": "J2000",
        "orbit_class": {
            "orbit_class_type": "AMO",
            "orbit_class_description": "Near-Earth asteroid orbits similar to that of 1221 Amor",
            "orbit_class_range": "1.017 AU < q (perihelion) < 1.3 AU"
        }
    },
    "is_sentry_object": false
}